STARLINK-36165          
1 66937U 25286N   26004.09199576  .00105374  00000+0  18769-2 0  9994
2 66937  53.1595 300.8347 0001392  52.8867 307.2269 15.49314114  5497
STARLINK-36155          
1 66938U 25286P   26003.33336806 -.00155008  00000+0 -28275-2 0  9994
2 66938  53.1586 304.4574 0001090  88.1775   0.2121 15.49379009  5463
STARLINK-36154          
1 66939U 25286Q   26004.18712566  .00060750  00000+0  15183-2 0  9991
2 66939  53.1606 300.7193 0001041 118.5694 241.5415 15.39586795  5509
STARLINK-36121          
1 66940U 25286R   26004.11756597  .00065334  00000+0  16317-2 0  9991
2 66940  53.1629 300.9962 0001541  70.8613 289.2559 15.39576299  5492
STARLINK-36088          
1 66941U 25286S   26004.21358094  .00087750  00000+0  15672-2 0  9992
2 66941  53.1602 300.1683 0001502  67.4853 292.6315 15.49325173  5516
STARLINK-36100          
1 66942U 25286T   26004.50003471  .00007277  00000+0  19179-3 0  9994
2 66942  53.1590 299.1412 0000669  86.5887 260.3114 15.39609763  5576
STARLINK-36109          
1 66943U 25286U   26004.50003471  .00011453  00000+0  29604-3 0  9990
2 66943  53.1594 299.0382 0001450  95.5844 302.8274 15.39602812  5575
STARLINK-36112          
1 66944U 25286V   26004.50003471  .00022851  00000+0  58016-3 0  9994
2 66944  53.1598 298.9340 0001549  95.3203 354.6530 15.39587423  5646
STARLINK-36110          
1 66945U 25286W   26004.50003471  .00016709  00000+0  42703-3 0  9996
2 66945  53.1598 298.9852 0001256  99.8083 324.3600 15.39601646  5641
STARLINK-36115          
1 66946U 25286X   26004.50003471 -.02406306  00000+0 -61953-1 0  9993
2 66946  53.1601 298.8876 0001716  82.4900  30.8457 15.42280499  5641
STARLINK-36089          
1 66947U 25286Y   26004.21723306  .00095012  00000+0  16945-2 0  9994
2 66947  53.1602 300.1909 0001301  85.4809 274.6349 15.49329370  5511
STARLINK-36116          
1 66948U 25286Z   26004.41215218  .00078416  00000+0  15412-2 0  9992
2 66948  53.1596 299.2732 0006575 357.0057   3.0910 15.46606166  5546
