CCSDS_OMM_VERS = 2.0
CREATION_DATE  = 
ORIGINATOR     = 

OBJECT_NAME    = STARLINK-36165
OBJECT_ID      = 2025-286N
CENTER_NAME    = EARTH
REF_FRAME      = TEME
TIME_SYSTEM    = UTC
MEAN_ELEMENT_THEORY = SGP/SGP4

EPOCH          = 2026-01-04T02:12:28.433664
MEAN_MOTION    = 15.49314114
ECCENTRICITY   = .00013922
INCLINATION    = 53.1595
RA_OF_ASC_NODE = 300.8347
ARG_OF_PERICENTER = 52.8867
MEAN_ANOMALY   = 307.2269

EPHEMERIS_TYPE = 0
CLASSIFICATION_TYPE = U
NORAD_CAT_ID   = 66937
ELEMENT_SET_NO = 999
REV_AT_EPOCH   = 549
BSTAR          = .18768782E-2
MEAN_MOTION_DOT = .105374E-2
MEAN_MOTION_DDOT = 0

CCSDS_OMM_VERS = 2.0
CREATION_DATE  = 
ORIGINATOR     = 

OBJECT_NAME    = STARLINK-36155
OBJECT_ID      = 2025-286P
CENTER_NAME    = EARTH
REF_FRAME      = TEME
TIME_SYSTEM    = UTC
MEAN_ELEMENT_THEORY = SGP/SGP4

EPOCH          = 2026-01-03T08:00:03.000384
MEAN_MOTION    = 15.49379009
ECCENTRICITY   = .00010904
INCLINATION    = 53.1586
RA_OF_ASC_NODE = 304.4574
ARG_OF_PERICENTER = 88.1775
MEAN_ANOMALY   = 0.2121

EPHEMERIS_TYPE = 0
CLASSIFICATION_TYPE = U
NORAD_CAT_ID   = 66938
ELEMENT_SET_NO = 999
REV_AT_EPOCH   = 546
BSTAR          = -.28275309E-2
MEAN_MOTION_DOT = -.155008E-2
MEAN_MOTION_DDOT = 0

CCSDS_OMM_VERS = 2.0
CREATION_DATE  = 
ORIGINATOR     = 

OBJECT_NAME    = STARLINK-36154
OBJECT_ID      = 2025-286Q
CENTER_NAME    = EARTH
REF_FRAME      = TEME
TIME_SYSTEM    = UTC
MEAN_ELEMENT_THEORY = SGP/SGP4

EPOCH          = 2026-01-04T04:29:27.657024
MEAN_MOTION    = 15.39586795
ECCENTRICITY   = .0001041
INCLINATION    = 53.1606
RA_OF_ASC_NODE = 300.7193
ARG_OF_PERICENTER = 118.5694
MEAN_ANOMALY   = 241.5415

EPHEMERIS_TYPE = 0
CLASSIFICATION_TYPE = U
NORAD_CAT_ID   = 66939
ELEMENT_SET_NO = 999
REV_AT_EPOCH   = 550
BSTAR          = .15183E-2
MEAN_MOTION_DOT = .6075E-3
MEAN_MOTION_DDOT = 0

CCSDS_OMM_VERS = 2.0
CREATION_DATE  = 
ORIGINATOR     = 

OBJECT_NAME    = STARLINK-36121
OBJECT_ID      = 2025-286R
CENTER_NAME    = EARTH
REF_FRAME      = TEME
TIME_SYSTEM    = UTC
MEAN_ELEMENT_THEORY = SGP/SGP4

EPOCH          = 2026-01-04T02:49:17.699808
MEAN_MOTION    = 15.39576299
ECCENTRICITY   = .00015417
INCLINATION    = 53.1629
RA_OF_ASC_NODE = 300.9962
ARG_OF_PERICENTER = 70.8613
MEAN_ANOMALY   = 289.2559

EPHEMERIS_TYPE = 0
CLASSIFICATION_TYPE = U
NORAD_CAT_ID   = 66940
ELEMENT_SET_NO = 999
REV_AT_EPOCH   = 549
BSTAR          = .16317045E-2
MEAN_MOTION_DOT = .65334E-3
MEAN_MOTION_DDOT = 0

CCSDS_OMM_VERS = 2.0
CREATION_DATE  = 
ORIGINATOR     = 

OBJECT_NAME    = STARLINK-36088
OBJECT_ID      = 2025-286S
CENTER_NAME    = EARTH
REF_FRAME      = TEME
TIME_SYSTEM    = UTC
MEAN_ELEMENT_THEORY = SGP/SGP4

EPOCH          = 2026-01-04T05:07:33.393216
MEAN_MOTION    = 15.49325173
ECCENTRICITY   = .0001502
INCLINATION    = 53.1602
RA_OF_ASC_NODE = 300.1683
ARG_OF_PERICENTER = 67.4853
MEAN_ANOMALY   = 292.6315

EPHEMERIS_TYPE = 0
CLASSIFICATION_TYPE = U
NORAD_CAT_ID   = 66941
ELEMENT_SET_NO = 999
REV_AT_EPOCH   = 551
BSTAR          = .15672E-2
MEAN_MOTION_DOT = .8775E-3
MEAN_MOTION_DDOT = 0

CCSDS_OMM_VERS = 2.0
CREATION_DATE  = 
ORIGINATOR     = 

OBJECT_NAME    = STARLINK-36100
OBJECT_ID      = 2025-286T
CENTER_NAME    = EARTH
REF_FRAME      = TEME
TIME_SYSTEM    = UTC
MEAN_ELEMENT_THEORY = SGP/SGP4

EPOCH          = 2026-01-04T12:00:02.998944
MEAN_MOTION    = 15.39609763
ECCENTRICITY   = .0000669
INCLINATION    = 53.1590
RA_OF_ASC_NODE = 299.1412
ARG_OF_PERICENTER = 86.5887
MEAN_ANOMALY   = 260.3114

EPHEMERIS_TYPE = 0
CLASSIFICATION_TYPE = U
NORAD_CAT_ID   = 66942
ELEMENT_SET_NO = 999
REV_AT_EPOCH   = 557
BSTAR          = .19179E-3
MEAN_MOTION_DOT = .7277E-4
MEAN_MOTION_DDOT = 0

CCSDS_OMM_VERS = 2.0
CREATION_DATE  = 
ORIGINATOR     = 

OBJECT_NAME    = STARLINK-36109
OBJECT_ID      = 2025-286U
CENTER_NAME    = EARTH
REF_FRAME      = TEME
TIME_SYSTEM    = UTC
MEAN_ELEMENT_THEORY = SGP/SGP4

EPOCH          = 2026-01-04T12:00:02.998944
MEAN_MOTION    = 15.39602812
ECCENTRICITY   = .000145
INCLINATION    = 53.1594
RA_OF_ASC_NODE = 299.0382
ARG_OF_PERICENTER = 95.5844
MEAN_ANOMALY   = 302.8274

EPHEMERIS_TYPE = 0
CLASSIFICATION_TYPE = U
NORAD_CAT_ID   = 66943
ELEMENT_SET_NO = 999
REV_AT_EPOCH   = 557
BSTAR          = .29604E-3
MEAN_MOTION_DOT = .11453E-3
MEAN_MOTION_DDOT = 0

CCSDS_OMM_VERS = 2.0
CREATION_DATE  = 
ORIGINATOR     = 

OBJECT_NAME    = STARLINK-36112
OBJECT_ID      = 2025-286V
CENTER_NAME    = EARTH
REF_FRAME      = TEME
TIME_SYSTEM    = UTC
MEAN_ELEMENT_THEORY = SGP/SGP4

EPOCH          = 2026-01-04T12:00:02.998944
MEAN_MOTION    = 15.39587423
ECCENTRICITY   = .0001549
INCLINATION    = 53.1598
RA_OF_ASC_NODE = 298.9340
ARG_OF_PERICENTER = 95.3203
MEAN_ANOMALY   = 354.6530

EPHEMERIS_TYPE = 0
CLASSIFICATION_TYPE = U
NORAD_CAT_ID   = 66944
ELEMENT_SET_NO = 999
REV_AT_EPOCH   = 564
BSTAR          = .58016E-3
MEAN_MOTION_DOT = .22851E-3
MEAN_MOTION_DDOT = 0

CCSDS_OMM_VERS = 2.0
CREATION_DATE  = 
ORIGINATOR     = 

OBJECT_NAME    = STARLINK-36110
OBJECT_ID      = 2025-286W
CENTER_NAME    = EARTH
REF_FRAME      = TEME
TIME_SYSTEM    = UTC
MEAN_ELEMENT_THEORY = SGP/SGP4

EPOCH          = 2026-01-04T12:00:02.998944
MEAN_MOTION    = 15.39601646
ECCENTRICITY   = .0001256
INCLINATION    = 53.1598
RA_OF_ASC_NODE = 298.9852
ARG_OF_PERICENTER = 99.8083
MEAN_ANOMALY   = 324.3600

EPHEMERIS_TYPE = 0
CLASSIFICATION_TYPE = U
NORAD_CAT_ID   = 66945
ELEMENT_SET_NO = 999
REV_AT_EPOCH   = 564
BSTAR          = .42703E-3
MEAN_MOTION_DOT = .16709E-3
MEAN_MOTION_DDOT = 0

CCSDS_OMM_VERS = 2.0
CREATION_DATE  = 
ORIGINATOR     = 

OBJECT_NAME    = STARLINK-36115
OBJECT_ID      = 2025-286X
CENTER_NAME    = EARTH
REF_FRAME      = TEME
TIME_SYSTEM    = UTC
MEAN_ELEMENT_THEORY = SGP/SGP4

EPOCH          = 2026-01-04T12:00:02.998944
MEAN_MOTION    = 15.42280499
ECCENTRICITY   = .0001716
INCLINATION    = 53.1601
RA_OF_ASC_NODE = 298.8876
ARG_OF_PERICENTER = 82.4900
MEAN_ANOMALY   = 30.8457

EPHEMERIS_TYPE = 0
CLASSIFICATION_TYPE = U
NORAD_CAT_ID   = 66946
ELEMENT_SET_NO = 999
REV_AT_EPOCH   = 564
BSTAR          = -.61953E-1
MEAN_MOTION_DOT = -.2406306E-1
MEAN_MOTION_DDOT = 0

CCSDS_OMM_VERS = 2.0
CREATION_DATE  = 
ORIGINATOR     = 

OBJECT_NAME    = STARLINK-36089
OBJECT_ID      = 2025-286Y
CENTER_NAME    = EARTH
REF_FRAME      = TEME
TIME_SYSTEM    = UTC
MEAN_ELEMENT_THEORY = SGP/SGP4

EPOCH          = 2026-01-04T05:12:48.936384
MEAN_MOTION    = 15.49329370
ECCENTRICITY   = .0001301
INCLINATION    = 53.1602
RA_OF_ASC_NODE = 300.1909
ARG_OF_PERICENTER = 85.4809
MEAN_ANOMALY   = 274.6349

EPHEMERIS_TYPE = 0
CLASSIFICATION_TYPE = U
NORAD_CAT_ID   = 66947
ELEMENT_SET_NO = 999
REV_AT_EPOCH   = 551
BSTAR          = .16945E-2
MEAN_MOTION_DOT = .95012E-3
MEAN_MOTION_DDOT = 0

CCSDS_OMM_VERS = 2.0
CREATION_DATE  = 
ORIGINATOR     = 

OBJECT_NAME    = STARLINK-36116
OBJECT_ID      = 2025-286Z
CENTER_NAME    = EARTH
REF_FRAME      = TEME
TIME_SYSTEM    = UTC
MEAN_ELEMENT_THEORY = SGP/SGP4

EPOCH          = 2026-01-04T09:53:29.948352
MEAN_MOTION    = 15.46606166
ECCENTRICITY   = .0006575
INCLINATION    = 53.1596
RA_OF_ASC_NODE = 299.2732
ARG_OF_PERICENTER = 357.0057
MEAN_ANOMALY   = 3.0910

EPHEMERIS_TYPE = 0
CLASSIFICATION_TYPE = U
NORAD_CAT_ID   = 66948
ELEMENT_SET_NO = 999
REV_AT_EPOCH   = 554
BSTAR          = .15412E-2
MEAN_MOTION_DOT = .78416E-3
MEAN_MOTION_DDOT = 0

